{
  "type": "FeatureCollection",
  "features": [
    {
      "type": "Feature",
      "properties": {
        "norad_id": 37006,
        "name": "FENGYUN 1C DEB",
        "group": "fengyun-1c-debris",
        "lat": 61.49007709550906,
        "lon": 76.07942871910087,
        "alt_km": 817.0162942509614,
        "timestamp": "2025-12-15T15:53:20.139506+00:00",
        "meta_object_name": "FENGYUN 1C DEB",
        "meta_object_id": "1999-025ECN",
        "meta_epoch": "2025-12-13T23:33:02.281824",
        "meta_mean_motion": 14.48911917,
        "meta_eccentricity": 0.02552652,
        "meta_inclination": 99.2982,
        "meta_ra_of_asc_node": 236.6727,
        "meta_arg_of_pericenter": 244.4177,
        "meta_mean_anomaly": 113.0432,
        "meta_ephemeris_type": 0,
        "meta_classification_type": "U",
        "meta_norad_cat_id": 37006,
        "meta_element_set_no": 999,
        "meta_rev_at_epoch": 65132,
        "meta_bstar": 0.00085332539,
        "meta_mean_motion_dot": 4.828e-05,
        "meta_mean_motion_ddot": 0,
        "tle_line1": "1 37006U 99025ECN 25347.98127641  .00004828  00000+0  85333-3 0  9996",
        "tle_line2": "2 37006  99.2982 236.6727 0255265 244.4177 113.0432 14.48911917651320"
      },
      "geometry": {
        "type": "Point",
        "coordinates": [
          76.07942871910087,
          61.49007709550906
        ]
      }
    },
    {
      "type": "Feature",
      "properties": {
        "norad_id": 37008,
        "name": "FENGYUN 1C DEB",
        "group": "fengyun-1c-debris",
        "lat": 80.84009346173127,
        "lon": 14.75196002496958,
        "alt_km": 899.546190029746,
        "timestamp": "2025-12-15T15:53:20.139515+00:00",
        "meta_object_name": "FENGYUN 1C DEB",
        "meta_object_id": "1999-025ECQ",
        "meta_epoch": "2025-12-13T19:06:40.490208",
        "meta_mean_motion": 14.07937973,
        "meta_eccentricity": 0.00619876,
        "meta_inclination": 99.1345,
        "meta_ra_of_asc_node": 106.6603,
        "meta_arg_of_pericenter": 250.6442,
        "meta_mean_anomaly": 108.8018,
        "meta_ephemeris_type": 0,
        "meta_classification_type": "U",
        "meta_norad_cat_id": 37008,
        "meta_element_set_no": 999,
        "meta_rev_at_epoch": 60329,
        "meta_bstar": 0.0014600322,
        "meta_mean_motion_dot": 2.478e-05,
        "meta_mean_motion_ddot": 0,
        "tle_line1": "1 37008U 99025ECQ 25347.79630197  .00002478  00000+0  14600-2 0  9999",
        "tle_line2": "2 37008  99.1345 106.6603 0061987 250.6442 108.8018 14.07937973603293"
      },
      "geometry": {
        "type": "Point",
        "coordinates": [
          14.75196002496958,
          80.84009346173127
        ]
      }
    },
    {
      "type": "Feature",
      "properties": {
        "norad_id": 37017,
        "name": "FENGYUN 1C DEB",
        "group": "fengyun-1c-debris",
        "lat": 41.124066079539176,
        "lon": -73.50467855050076,
        "alt_km": 608.008071117888,
        "timestamp": "2025-12-15T15:53:20.139525+00:00",
        "meta_object_name": "FENGYUN 1C DEB",
        "meta_object_id": "1999-025ECZ",
        "meta_epoch": "2025-12-13T02:02:11.269824",
        "meta_mean_motion": 14.40690493,
        "meta_eccentricity": 0.02825013,
        "meta_inclination": 98.7925,
        "meta_ra_of_asc_node": 291.6095,
        "meta_arg_of_pericenter": 4.2343,
        "meta_mean_anomaly": 356.114,
        "meta_ephemeris_type": 0,
        "meta_classification_type": "U",
        "meta_norad_cat_id": 37017,
        "meta_element_set_no": 999,
        "meta_rev_at_epoch": 61166,
        "meta_bstar": 0.002666834,
        "meta_mean_motion_dot": 0.00013671,
        "meta_mean_motion_ddot": 0,
        "tle_line1": "1 37017U 99025ECZ 25347.08485266  .00013671  00000+0  26668-2 0  9990",
        "tle_line2": "2 37017  98.7925 291.6095 0282501   4.2343 356.1140 14.40690493611666"
      },
      "geometry": {
        "type": "Point",
        "coordinates": [
          -73.50467855050076,
          41.124066079539176
        ]
      }
    },
    {
      "type": "Feature",
      "properties": {
        "norad_id": 37021,
        "name": "FENGYUN 1C DEB",
        "group": "fengyun-1c-debris",
        "lat": 53.36292063066661,
        "lon": -5.200506399624775,
        "alt_km": 903.4264071251228,
        "timestamp": "2025-12-15T15:53:20.139533+00:00",
        "meta_object_name": "FENGYUN 1C DEB",
        "meta_object_id": "1999-025EDD",
        "meta_epoch": "2025-12-14T07:50:53.795328",
        "meta_mean_motion": 14.32281545,
        "meta_eccentricity": 0.01757767,
        "meta_inclination": 98.3863,
        "meta_ra_of_asc_node": 4.9491,
        "meta_arg_of_pericenter": 247.0389,
        "meta_mean_anomaly": 127.1777,
        "meta_ephemeris_type": 0,
        "meta_classification_type": "U",
        "meta_norad_cat_id": 37021,
        "meta_element_set_no": 999,
        "meta_rev_at_epoch": 70077,
        "meta_bstar": 0.00079693955,
        "meta_mean_motion_dot": 2.504e-05,
        "meta_mean_motion_ddot": 0,
        "tle_line1": "1 37021U 99025EDD 25348.32701152  .00002504  00000+0  79694-3 0  9999",
        "tle_line2": "2 37021  98.3863   4.9491 0175776 247.0389 127.1777 14.32281545700773"
      },
      "geometry": {
        "type": "Point",
        "coordinates": [
          -5.200506399624775,
          53.36292063066661
        ]
      }
    },
    {
      "type": "Feature",
      "properties": {
        "norad_id": 37028,
        "name": "FENGYUN 1C DEB",
        "group": "fengyun-1c-debris",
        "lat": -37.43982547170309,
        "lon": -95.30867509764417,
        "alt_km": 837.0968183793848,
        "timestamp": "2025-12-15T15:53:20.139542+00:00",
        "meta_object_name": "FENGYUN 1C DEB",
        "meta_object_id": "1999-025EDL",
        "meta_epoch": "2025-12-14T13:03:45.984672",
        "meta_mean_motion": 14.22752179,
        "meta_eccentricity": 0.0033411,
        "meta_inclination": 99.2457,
        "meta_ra_of_asc_node": 256.3546,
        "meta_arg_of_pericenter": 93.2394,
        "meta_mean_anomaly": 267.2605,
        "meta_ephemeris_type": 0,
        "meta_classification_type": "U",
        "meta_norad_cat_id": 37028,
        "meta_element_set_no": 999,
        "meta_rev_at_epoch": 60501,
        "meta_bstar": 0.0016622383,
        "meta_mean_motion_dot": 3.701e-05,
        "meta_mean_motion_ddot": 0,
        "tle_line1": "1 37028U 99025EDL 25348.54428223  .00003701  00000+0  16622-2 0  9996",
        "tle_line2": "2 37028  99.2457 256.3546 0033411  93.2394 267.2605 14.22752179605011"
      },
      "geometry": {
        "type": "Point",
        "coordinates": [
          -95.30867509764417,
          -37.43982547170309
        ]
      }
    },
    {
      "type": "Feature",
      "properties": {
        "norad_id": 37036,
        "name": "FENGYUN 1C DEB",
        "group": "fengyun-1c-debris",
        "lat": -59.86062472514892,
        "lon": 146.95382957626157,
        "alt_km": 976.0455802322385,
        "timestamp": "2025-12-15T15:53:20.139551+00:00",
        "meta_object_name": "FENGYUN 1C DEB",
        "meta_object_id": "1999-025EDU",
        "meta_epoch": "2025-12-10T16:41:53.236320",
        "meta_mean_motion": 14.03563948,
        "meta_eccentricity": 0.01243108,
        "meta_inclination": 98.7137,
        "meta_ra_of_asc_node": 337.5102,
        "meta_arg_of_pericenter": 60.8898,
        "meta_mean_anomaly": 300.4649,
        "meta_ephemeris_type": 0,
        "meta_classification_type": "U",
        "meta_norad_cat_id": 37036,
        "meta_element_set_no": 999,
        "meta_rev_at_epoch": 63719,
        "meta_bstar": 0.00069616367,
        "meta_mean_motion_dot": 1.128e-05,
        "meta_mean_motion_ddot": 0,
        "tle_line1": "1 37036U 99025EDU 25344.69575505  .00001128  00000+0  69616-3 0  9996",
        "tle_line2": "2 37036  98.7137 337.5102 0124310  60.8898 300.4649 14.03563948637192"
      },
      "geometry": {
        "type": "Point",
        "coordinates": [
          146.95382957626157,
          -59.86062472514892
        ]
      }
    },
    {
      "type": "Feature",
      "properties": {
        "norad_id": 37044,
        "name": "FENGYUN 1C DEB",
        "group": "fengyun-1c-debris",
        "lat": 35.844647866645914,
        "lon": 89.0308420402264,
        "alt_km": 1149.8045703286725,
        "timestamp": "2025-12-15T15:53:20.139560+00:00",
        "meta_object_name": "FENGYUN 1C DEB",
        "meta_object_id": "1999-025EEC",
        "meta_epoch": "2025-12-13T18:09:13.099104",
        "meta_mean_motion": 13.70836085,
        "meta_eccentricity": 0.05085884,
        "meta_inclination": 98.9604,
        "meta_ra_of_asc_node": 93.7895,
        "meta_arg_of_pericenter": 158.6694,
        "meta_mean_anomaly": 203.6512,
        "meta_ephemeris_type": 0,
        "meta_classification_type": "U",
        "meta_norad_cat_id": 37044,
        "meta_element_set_no": 999,
        "meta_rev_at_epoch": 83872,
        "meta_bstar": 0.0035079528,
        "meta_mean_motion_dot": 7.855e-05,
        "meta_mean_motion_ddot": 0,
        "tle_line1": "1 37044U 99025EEC 25347.75640161  .00007855  00000+0  35080-2 0  9996",
        "tle_line2": "2 37044  98.9604  93.7895 0508588 158.6694 203.6512 13.70836085838728"
      },
      "geometry": {
        "type": "Point",
        "coordinates": [
          89.0308420402264,
          35.844647866645914
        ]
      }
    }
  ]
}